NORAD_CAT_ID,OBJECT_NAME,OBJECT_TYPE,EPOCH,MEAN_MOTION,ECCENTRICITY,INCLINATION,RA_OF_ASC_NODE,ARG_OF_PERICENTER,MEAN_ANOMALY,BSTAR,MEAN_MOTION_DOT,MEAN_MOTION_DDOT,TLE_LINE0,TLE_LINE1,TLE_LINE2,SEMIMAJOR_AXIS,PERIOD,APOGEE,PERIGEE,DECAYED
51789.0,STARLINK-3639,PAYLOAD,2023-12-31 08:11:42,15.08844774,0.0001795,53.2174,337.5309,101.3066,258.8128,0.00012619,1.721e-05,0.0,0 STARLINK-3639,1 51789U 22017X   23365.34146364  .00001721  00000-0  12619-3 0  9995,2 51789  53.2174 337.5309 0001795 101.3066 258.8128 15.08844774101603,6917.866,95.437,540.973,538.489,0.0
51789.0,STARLINK-3639,PAYLOAD,2024-01-01 04:51:43,15.08839646,0.0001426,53.2181,333.6684,92.9766,267.1389,-8.0047e-05,-1.562e-05,0.0,0 STARLINK-3639,1 51789U 22017X   24001.20258587 -.00001562  00000-0 -80047-4 0  9995,2 51789  53.2181 333.6684 0001426  92.9766 267.1389 15.08839646103388,6917.881,95.438,540.733,538.76,0.0
51789.0,STARLINK-3639,PAYLOAD,2024-01-01 22:20:57,15.0884412,0.0001251,53.218,330.3969,99.5883,260.525,0.0001979,2.863e-05,0.0,0 STARLINK-3639,1 51789U 22017X   24001.93122547  .00002863  00000-0  19790-3 0  9990,2 51789  53.2180 330.3969 0001251  99.5883 260.5250 15.08844120101842,6917.868,95.437,540.598,538.867,0.0
51789.0,STARLINK-3639,PAYLOAD,2024-01-02 04:42:30,15.08857909,0.0001381,53.2182,329.2075,97.5595,262.5554,0.0004619,7.074e-05,0.0,0 STARLINK-3639,1 51789U 22017X   24002.19618082  .00007074  00000-0  46190-3 0  9996,2 51789  53.2182 329.2075 0001381  97.5595 262.5554 15.08857909103537,6917.826,95.436,540.646,538.735,0.0
51789.0,STARLINK-3639,PAYLOAD,2024-01-03 02:57:54,15.08846978,0.0001393,53.2177,325.0438,93.5178,266.5974,0.00019129,2.758e-05,0.0,0 STARLINK-3639,1 51789U 22017X   24003.12354411  .00002758  00000-0  19129-3 0  9999,2 51789  53.2177 325.0438 0001393  93.5178 266.5974 15.08846978103673,6917.859,95.437,540.688,538.76,0.0
51789.0,STARLINK-3639,PAYLOAD,2024-01-03 06:08:40,15.08848663,0.0001381,53.2177,324.4494,94.1945,265.9205,0.00023721,3.49e-05,0.0,0 STARLINK-3639,1 51789U 22017X   24003.25602293  .00003490  00000-0  23721-3 0  9994,2 51789  53.2177 324.4494 0001381  94.1945 265.9205 15.08848663102047,6917.854,95.437,540.674,538.764,0.0
51789.0,STARLINK-3639,PAYLOAD,2024-01-04 02:48:41,15.08838302,0.0001463,53.2169,320.5821,102.7695,257.346,-9.4716e-06,-4.39e-06,0.0,0 STARLINK-3639,1 51789U 22017X   24004.11714757 -.00000439  00000-0 -94716-5 0  9995,2 51789  53.2169 320.5821 0001463 102.7695 257.3460 15.08838302103822,6917.886,95.438,540.763,538.738,0.0
51789.0,STARLINK-3639,PAYLOAD,2024-01-04 07:34:51,15.08838458,0.0001441,53.2172,319.6904,96.2813,263.8343,3.2473e-05,2.29e-06,0.0,0 STARLINK-3639,1 51789U 22017X   24004.31586830  .00000229  00000-0  32473-4 0  9992,2 51789  53.2172 319.6904 0001441  96.2813 263.8343 15.08838458102207,6917.885,95.438,540.747,538.753,0.0
51789.0,STARLINK-3639,PAYLOAD,2024-01-05 04:14:51,15.088435,0.0001588,53.218,315.8241,77.7795,282.3375,0.00017551,2.507e-05,0.0,0 STARLINK-3639,1 51789U 22017X   24005.17699002  .00002507  00000-0  17551-3 0  9993,2 51789  53.2180 315.8241 0001588  77.7795 282.3375 15.08843500103984,6917.87,95.437,540.833,538.636,0.0
51789.0,STARLINK-3639,PAYLOAD,2024-01-05 05:50:14,15.0884717,0.0001577,53.218,315.5263,79.1406,280.9763,0.00023117,3.394e-05,0.0,0 STARLINK-3639,1 51789U 22017X   24005.24322845  .00003394  00000-0  23117-3 0  9999,2 51789  53.2180 315.5263 0001577  79.1406 280.9763 15.08847170102349,6917.858,95.437,540.814,538.633,0.0
51789.0,STARLINK-3639,PAYLOAD,2024-01-06 02:30:16,15.08841264,0.0001733,53.2181,311.6603,73.9223,286.1959,0.00013363,1.839e-05,0.0,0 STARLINK-3639,1 51789U 22017X   24006.10435298  .00001839  00000-0  13363-3 0  9996,2 51789  53.2181 311.6603 0001733  73.9223 286.1959 15.08841264104129,6917.877,95.437,540.94,538.543,0.0
51789.0,STARLINK-3639,PAYLOAD,2024-01-06 19:59:30,15.08844048,0.0001578,53.2177,308.3961,75.4535,284.6632,0.00017955,2.571e-05,0.0,0 STARLINK-3639,1 51789U 22017X   24006.83299236  .00002571  00000-0  17955-3 0  9991,2 51789  53.2177 308.3961 0001578  75.4535 284.6632 15.08844048102586,6917.868,95.437,540.825,538.641,0.0
51789.0,STARLINK-3639,PAYLOAD,2024-01-07 05:31:48,15.08851816,0.0001528,53.2177,306.6079,85.8512,274.2655,0.00017389,2.481e-05,0.0,0 STARLINK-3639,1 51789U 22017X   24007.23042672  .00002481  00000-0  17389-3 0  9997,2 51789  53.2177 306.6079 0001528  85.8512 274.2655 15.08851816104293,6917.844,95.437,540.766,538.652,0.0
51789.0,STARLINK-3639,PAYLOAD,2024-01-07 19:50:17,15.08841597,0.0001472,53.2187,303.9235,108.0178,252.0975,1.6109e-05,-3.2e-07,0.0,0 STARLINK-3639,1 51789U 22017X   24007.82659082 -.00000032  00000-0  16109-4 0  9992,2 51789  53.2187 303.9235 0001472 108.0178 252.0975 15.08841597104386,6917.876,95.437,540.759,538.722,0.0
51789.0,STARLINK-3639,PAYLOAD,2024-01-07 23:01:03,15.08842234,0.0002047,53.2172,303.335,115.8587,244.2616,0.0001093,1.452e-05,0.0,0 STARLINK-3639,1 51789U 22017X   24007.95907011  .00001452  00000-0  10930-3 0  9995,2 51789  53.2172 303.3350 0002047 115.8587 244.2616 15.08842234102754,6917.874,95.437,541.155,538.322,0.0
51789.0,STARLINK-3639,PAYLOAD,2024-01-08 05:22:36,15.08844468,0.0001531,53.217,302.1475,93.7638,266.3529,0.00015004,2.101e-05,0.0,0 STARLINK-3639,1 51789U 22017X   24008.22403035  .00002101  00000-0  15004-3 0  9992,2 51789  53.2170 302.1475 0001531  93.7638 266.3529 15.08844468102798,6917.867,95.437,540.791,538.673,0.0
51789.0,STARLINK-3639,PAYLOAD,2024-01-08 22:51:50,15.08840072,0.0001537,53.2172,298.8745,109.154,250.9618,1.2655e-05,-8.7e-07,0.0,0 STARLINK-3639,1 51789U 22017X   24008.95267234 -.00000087  00000-0  12655-4 0  9993,2 51789  53.2172 298.8745 0001537 109.1540 250.9618 15.08840072102909,6917.88,95.438,540.808,538.682,0.0
51789.0,STARLINK-3639,PAYLOAD,2024-01-09 00:27:14,15.08840473,0.0001542,53.2173,298.5771,108.5999,251.516,1.8798e-05,1.1e-07,0.0,0 STARLINK-3639,1 51789U 22017X   24009.01891216  .00000011  00000-0  18798-4 0  9994,2 51789  53.2173 298.5771 0001542 108.5999 251.5160 15.08840473104561,6917.879,95.438,540.811,538.677,0.0
51789.0,STARLINK-3639,PAYLOAD,2024-01-09 22:42:37,15.0884267,0.0001532,53.2172,294.4139,104.1438,255.9724,9.8181e-05,1.275e-05,0.0,0 STARLINK-3639,1 51789U 22017X   24009.94627176  .00001275  00000-0  98181-4 0  9995,2 51789  53.2172 294.4139 0001532 104.1438 255.9724 15.08842670103050,6917.872,95.437,540.797,538.677,0.0
51789.0,STARLINK-3639,PAYLOAD,2024-01-10 01:53:24,15.0884257,0.0001478,53.2174,293.8193,100.0476,260.0683,8.5814e-05,1.078e-05,0.0,0 STARLINK-3639,1 51789U 22017X   24010.07875169  .00001078  00000-0  85814-4 0  9998,2 51789  53.2174 293.8193 0001478 100.0476 260.0683 15.08842570104726,6917.873,95.437,540.76,538.715,0.0
51789.0,STARLINK-3639,PAYLOAD,2024-01-10 17:47:15,15.08837231,0.0001493,53.2179,290.8511,99.3364,260.7797,8.1474e-05,1.009e-05,0.0,0 STARLINK-3639,1 51789U 22017X   24010.74115563  .00001009  00000-0  81474-4 0  9999,2 51789  53.2179 290.8511 0001493  99.3364 260.7797 15.08837231104827,6917.889,95.438,540.787,538.721,0.0
51789.0,STARLINK-3639,PAYLOAD,2024-01-11 03:19:34,15.08848202,0.0001611,53.2186,289.0651,109.8122,250.3044,0.00014457,2.014e-05,0.0,0 STARLINK-3639,1 51789U 22017X   24011.13858917  .00002014  00000-0  14457-3 0  9993,2 51789  53.2186 289.0651 0001611 109.8122 250.3044 15.08848202104887,6917.855,95.437,540.835,538.606,0.0
51789.0,STARLINK-3639,PAYLOAD,2024-01-11 22:24:12,15.08837179,0.0001342,53.2165,285.4976,99.0087,261.1057,8.1486e-06,-1.58e-06,0.0,0 STARLINK-3639,1 51789U 22017X   24011.93347648 -.00000158  00000-0  81486-5 0  9991,2 51789  53.2165 285.4976 0001342  99.0087 261.1057 15.08837179103351,6917.889,95.438,540.682,538.826,0.0
51789.0,STARLINK-3639,PAYLOAD,2024-01-12 03:10:21,15.08843673,0.0001459,53.2165,284.6047,94.7758,265.3401,0.00010826,1.436e-05,0.0,0 STARLINK-3639,1 51789U 22017X   24012.13219384  .00001436  00000-0  10826-3 0  9996,2 51789  53.2165 284.6047 0001459  94.7758 265.3401 15.08843673105039,6917.869,95.437,540.743,538.725,0.0
51789.0,STARLINK-3639,PAYLOAD,2024-01-12 22:14:59,15.08837419,0.000136,53.2172,281.0319,106.1234,253.9908,-6.7208e-05,-1.357e-05,0.0,0 STARLINK-3639,1 51789U 22017X   24012.92707782 -.00001357  00000-0 -67208-4 0  9998,2 51789  53.2172 281.0319 0001360 106.1234 253.9908 15.08837419103504,6917.888,95.438,540.694,538.812,0.0
51789.0,STARLINK-3639,PAYLOAD,2024-01-13 03:01:08,15.08843528,0.000139,53.2169,280.1403,99.5212,260.5938,5.5968e-05,6.03e-06,0.0,0 STARLINK-3639,1 51789U 22017X   24013.12579574  .00000603  00000-0  55968-4 0  9998,2 51789  53.2169 280.1403 0001390  99.5212 260.5938 15.08843528105189,6917.87,95.437,540.696,538.773,0.0
51789.0,STARLINK-3639,PAYLOAD,2024-01-14 02:51:55,15.08854031,0.000147,53.216,275.6806,104.7344,255.3811,0.00040572,6.177e-05,0.0,0 STARLINK-3639,1 51789U 22017X   24014.11939518  .00006177  00000-0  40572-3 0  9992,2 51789  53.2160 275.6806 0001470 104.7344 255.3811 15.08854031103686,6917.838,95.437,540.719,538.686,0.0
51789.0,STARLINK-3639,PAYLOAD,2024-01-14 21:56:33,15.08846509,0.0001606,53.2162,272.1102,116.0341,244.0817,0.00013322,1.833e-05,0.0,0 STARLINK-3639,1 51789U 22017X   24014.91427553  .00001833  00000-0  13322-3 0  9998,2 51789  53.2162 272.1102 0001606 116.0341 244.0817 15.08846509103809,6917.86,95.437,540.837,538.614,0.0
51789.0,STARLINK-3639,PAYLOAD,2024-01-15 02:42:42,15.08852688,0.0001862,53.2181,271.214,124.6199,235.4969,0.0001687,2.399e-05,0.0,0 STARLINK-3639,1 51789U 22017X   24015.11299055  .00002399  00000-0  16870-3 0  9994,2 51789  53.2181 271.2140 0001862 124.6199 235.4969 15.08852688105485,6917.842,95.437,540.995,538.419,0.0
51789.0,STARLINK-3639,PAYLOAD,2024-01-15 20:11:57,15.08843637,0.0002322,53.2174,267.9413,141.2118,218.9042,-8.3092e-05,-1.611e-05,0.0,0 STARLINK-3639,1 51789U 22017X   24015.84163225 -.00001611  00000-0 -83092-4 0  9992,2 51789  53.2174 267.9413 0002322 141.2118 218.9042 15.08843637103941,6917.869,95.437,541.341,538.128,0.0
